{"type": "FeatureCollection", "features": [ {"type": "Feature", "properties": {"norad_id": 66052, "name": "HRC MONOBLOCK CAMERA", "group": "stations", "lat": -51.285347935335615, "lon": 21.62719664088121, "alt_km": 406.79098677626916, "timestamp": "2025-12-20T11:30:27.135616+00:00", "meta": {"OBJECT_NAME": "HRC MONOBLOCK CAMERA", "OBJECT_ID": "1998-067XR", "EPOCH": "2025-12-20T01:04:16.026816", "MEAN_MOTION": 15.54630593, "ECCENTRICITY": 0.0002482, "INCLINATION": 51.6306, "RA_OF_ASC_NODE": 105.0705, "ARG_OF_PERICENTER": 219.0079, "MEAN_ANOMALY": 141.0733, "EPHEMERIS_TYPE": 0, "CLASSIFICATION_TYPE": "U", "NORAD_CAT_ID": 66052, "ELEMENT_SET_NO": 999, "REV_AT_EPOCH": 997, "BSTAR": 0.00040364, "MEAN_MOTION_DOT": 0.00026826, "MEAN_MOTION_DDOT": 0}, "tle": {"line1": "1 66052U 98067XR  25354.04462994  .00026826  00000+0  40364-3 0  9999", "line2": "2 66052  51.6306 105.0705 0002482 219.0079 141.0733 15.54630593  9979"}}, "geometry": {"type": "Point", "coordinates": [21.62719664088121, -51.285347935335615]}}, {"type": "Feature", "properties": {"norad_id": 66174, "name": "HTV-X1", "group": "stations", "lat": 26.460107079756543, "lon": 127.37228009611043, "alt_km": 415.4722959583214, "timestamp": "2025-12-20T11:30:27.135643+00:00", "meta": {"OBJECT_NAME": "HTV-X1", "OBJECT_ID": "2025-241A", "EPOCH": "2025-12-19T18:20:02.855616", "MEAN_MOTION": 15.49672026, "ECCENTRICITY": 0.00031868, "INCLINATION": 51.6318, "RA_OF_ASC_NODE": 107.6945, "ARG_OF_PERICENTER": 273.0117, "MEAN_ANOMALY": 87.0507, "EPHEMERIS_TYPE": 0, "CLASSIFICATION_TYPE": "U", "NORAD_CAT_ID": 66174, "ELEMENT_SET_NO": 999, "REV_AT_EPOCH": 51, "BSTAR": 0.0001262585, "MEAN_MOTION_DOT": 6.675e-05, "MEAN_MOTION_DDOT": 0}, "tle": {"line1": "1 66174U 25241A   25353.76392194  .00006675  00000+0  12626-3 0  9990", "line2": "2 66174  51.6318 107.6945 0003186 273.0117  87.0507 15.49672026   516"}}, "geometry": {"type": "Point", "coordinates": [127.37228009611043, 26.460107079756543]}}, {"type": "Feature", "properties": {"norad_id": 66515, "name": "SZ-21 MODULE", "group": "stations", "lat": 41.40785173687971, "lon": 55.45459501299749, "alt_km": 375.7360600975135, "timestamp": "2025-12-20T11:30:27.135668+00:00", "meta": {"OBJECT_NAME": "SZ-21 MODULE", "OBJECT_ID": "2025-246C", "EPOCH": "2025-12-20T00:23:58.586784", "MEAN_MOTION": 15.62845969, "ECCENTRICITY": 0.0005614, "INCLINATION": 41.4774, "RA_OF_ASC_NODE": 331.6436, "ARG_OF_PERICENTER": 298.6843, "MEAN_ANOMALY": 61.3432, "EPHEMERIS_TYPE": 0, "CLASSIFICATION_TYPE": "U", "NORAD_CAT_ID": 66515, "ELEMENT_SET_NO": 999, "REV_AT_EPOCH": 558, "BSTAR": 0.000225, "MEAN_MOTION_DOT": 0.00020613, "MEAN_MOTION_DDOT": 0}, "tle": {"line1": "1 66515U 25246C   25354.01665031  .00020613  00000+0  22500-3 0  9996", "line2": "2 66515  41.4774 331.6436 0005614 298.6843  61.3432 15.62845969  5586"}}, "geometry": {"type": "Point", "coordinates": [55.45459501299749, 41.40785173687971]}}, {"type": "Feature", "properties": {"norad_id": 66645, "name": "SHENZHOU-22", "group": "stations", "lat": 41.31090615839995, "lon": 54.08589822713887, "alt_km": 377.2402397853966, "timestamp": "2025-12-20T11:30:27.135686+00:00", "meta": {"OBJECT_NAME": "SHENZHOU-22", "OBJECT_ID": "2025-272A", "EPOCH": "2025-12-19T22:50:46.623264", "MEAN_MOTION": 15.5948412, "ECCENTRICITY": 0.00077419, "INCLINATION": 41.4684, "RA_OF_ASC_NODE": 332.9127, "ARG_OF_PERICENTER": 94.7688, "MEAN_ANOMALY": 265.4034, "EPHEMERIS_TYPE": 0, "CLASSIFICATION_TYPE": "U", "NORAD_CAT_ID": 66645, "ELEMENT_SET_NO": 999, "REV_AT_EPOCH": 26357, "BSTAR": 0.0002198914, "MEAN_MOTION_DOT": 0.00017657, "MEAN_MOTION_DDOT": 0}, "tle": {"line1": "1 66645U 25272A   25353.95192851  .00017657  00000+0  21989-3 0  9990", "line2": "2 66645  41.4684 332.9127 0007741  94.7688 265.4034 15.59484120263570"}}, "geometry": {"type": "Point", "coordinates": [54.08589822713887, 41.31090615839995]}}, {"type": "Feature", "properties": {"norad_id": 66664, "name": "SOYUZ-MS 28", "group": "stations", "lat": 26.460157384896416, "lon": 127.37233415403477, "alt_km": 415.4726198991075, "timestamp": "2025-12-20T11:30:27.135704+00:00", "meta": {"OBJECT_NAME": "SOYUZ-MS 28", "OBJECT_ID": "2025-275A", "EPOCH": "2025-12-19T18:20:02.854752", "MEAN_MOTION": 15.49672026, "ECCENTRICITY": 0.0003187, "INCLINATION": 51.6318, "RA_OF_ASC_NODE": 107.6945, "ARG_OF_PERICENTER": 273.0117, "MEAN_ANOMALY": 87.0507, "EPHEMERIS_TYPE": 0, "CLASSIFICATION_TYPE": "U", "NORAD_CAT_ID": 66664, "ELEMENT_SET_NO": 999, "REV_AT_EPOCH": 353, "BSTAR": 0.00012626, "MEAN_MOTION_DOT": 6.675e-05, "MEAN_MOTION_DDOT": 0}, "tle": {"line1": "1 66664U 25275A   25353.76392193  .00006675  00000+0  12626-3 0  9990", "line2": "2 66664  51.6318 107.6945 0003187 273.0117  87.0507 15.49672026  3536"}}, "geometry": {"type": "Point", "coordinates": [127.37233415403477, 26.460157384896416]}}, {"type": "Feature", "properties": {"norad_id": 66906, "name": "1998-067XS", "group": "stations", "lat": 51.15129098518181, "lon": -155.61160111829523, "alt_km": 408.50783293656696, "timestamp": "2025-12-20T11:30:27.135720+00:00", "meta": {"OBJECT_NAME": "1998-067XS", "OBJECT_ID": "1998-067XS", "EPOCH": "2025-12-19T19:37:45.032448", "MEAN_MOTION": 15.50933488, "ECCENTRICITY": 0.00029661, "INCLINATION": 51.6311, "RA_OF_ASC_NODE": 107.3061, "ARG_OF_PERICENTER": 238.2809, "MEAN_ANOMALY": 121.7891, "EPHEMERIS_TYPE": 0, "CLASSIFICATION_TYPE": "U", "NORAD_CAT_ID": 66906, "ELEMENT_SET_NO": 999, "REV_AT_EPOCH": 271, "BSTAR": 0.00034986922, "MEAN_MOTION_DOT": 0.00020233, "MEAN_MOTION_DDOT": 0}, "tle": {"line1": "1 66906U 98067XS  25353.81788232  .00020233  00000+0  34987-3 0  9997", "line2": "2 66906  51.6311 107.3061 0002966 238.2809 121.7891 15.50933488  2714"}}, "geometry": {"type": "Point", "coordinates": [-155.61160111829523, 51.15129098518181]}}, {"type": "Feature", "properties": {"norad_id": 66907, "name": "1998-067XT", "group": "stations", "lat": 27.463900038989742, "lon": -100.39720054405835, "alt_km": 408.04260356035866, "timestamp": "2025-12-20T11:30:27.135740+00:00", "meta": {"OBJECT_NAME": "1998-067XT", "OBJECT_ID": "1998-067XT", "EPOCH": "2025-12-19T11:42:50.767776", "MEAN_MOTION": 15.52255247, "ECCENTRICITY": 0.0003998, "INCLINATION": 51.6306, "RA_OF_ASC_NODE": 108.8528, "ARG_OF_PERICENTER": 265.7173, "MEAN_ANOMALY": 94.336, "EPHEMERIS_TYPE": 0, "CLASSIFICATION_TYPE": "U", "NORAD_CAT_ID": 66907, "ELEMENT_SET_NO": 999, "REV_AT_EPOCH": 266, "BSTAR": 0.00077339, "MEAN_MOTION_DOT": 0.00047666, "MEAN_MOTION_DDOT": 0}, "tle": {"line1": "1 66907U 98067XT  25353.48808759  .00047666  00000+0  77339-3 0  9995", "line2": "2 66907  51.6306 108.8528 0003998 265.7173  94.3360 15.52255247  2660"}}, "geometry": {"type": "Point", "coordinates": [-100.39720054405835, 27.463900038989742]}}, {"type": "Feature", "properties": {"norad_id": 66908, "name": "1998-067XU", "group": "stations", "lat": 24.21496455824375, "lon": -96.96429553417104, "alt_km": 407.9495572035985, "timestamp": "2025-12-20T11:30:27.135752+00:00", "meta": {"OBJECT_NAME": "1998-067XU", "OBJECT_ID": "1998-067XU", "EPOCH": "2025-12-18T14:03:56.443680", "MEAN_MOTION": 15.52259493, "ECCENTRICITY": 0.00039838, "INCLINATION": 51.6306, "RA_OF_ASC_NODE": 113.3296, "ARG_OF_PERICENTER": 260.0245, "MEAN_ANOMALY": 100.0295, "EPHEMERIS_TYPE": 0, "CLASSIFICATION_TYPE": "U", "NORAD_CAT_ID": 66908, "ELEMENT_SET_NO": 999, "REV_AT_EPOCH": 252, "BSTAR": 0.00087908108, "MEAN_MOTION_DOT": 0.00054298, "MEAN_MOTION_DDOT": 0}, "tle": {"line1": "1 66908U 98067XU  25352.58606995  .00054298  00000+0  87908-3 0  9996", "line2": "2 66908  51.6306 113.3296 0003983 260.0245 100.0295 15.52259493  2520"}}, "geometry": {"type": "Point", "coordinates": [-96.96429553417104, 24.21496455824375]}}, {"type": "Feature", "properties": {"norad_id": 66909, "name": "SILVERSAT", "group": "stations", "lat": 19.99819823435984, "lon": -92.85762548768685, "alt_km": 408.13977964977585, "timestamp": "2025-12-20T11:30:27.135762+00:00", "meta": {"OBJECT_NAME": "SILVERSAT", "OBJECT_ID": "1998-067XV", "EPOCH": "2025-12-19T13:13:09.424128", "MEAN_MOTION": 15.5251652, "ECCENTRICITY": 0.0003839, "INCLINATION": 51.6306, "RA_OF_ASC_NODE": 108.5226, "ARG_OF_PERICENTER": 268.696, "MEAN_ANOMALY": 91.359, "EPHEMERIS_TYPE": 0, "CLASSIFICATION_TYPE": "U", "NORAD_CAT_ID": 66909, "ELEMENT_SET_NO": 999, "REV_AT_EPOCH": 267, "BSTAR": 0.00079912, "MEAN_MOTION_DOT": 0.00049748, "MEAN_MOTION_DDOT": 0}, "tle": {"line1": "1 66909U 98067XV  25353.55080352  .00049748  00000+0  79912-3 0  9998", "line2": "2 66909  51.6306 108.5226 0003839 268.6960  91.3590 15.52516520  2671"}}, "geometry": {"type": "Point", "coordinates": [-92.85762548768685, 19.99819823435984]}}, {"type": "Feature", "properties": {"norad_id": 66910, "name": "1998-067XW", "group": "stations", "lat": 12.381496859240713, "lon": -86.13657101628445, "alt_km": 407.7371253478341, "timestamp": "2025-12-20T11:30:27.135773+00:00", "meta": {"OBJECT_NAME": "1998-067XW", "OBJECT_ID": "1998-067XW", "EPOCH": "2025-12-19T13:10:35.176800", "MEAN_MOTION": 15.525263, "ECCENTRICITY": 0.0004382, "INCLINATION": 51.6305, "RA_OF_ASC_NODE": 108.5102, "ARG_OF_PERICENTER": 243.3936, "MEAN_ANOMALY": 116.6605, "EPHEMERIS_TYPE": 0, "CLASSIFICATION_TYPE": "U", "NORAD_CAT_ID": 66910, "ELEMENT_SET_NO": 999, "REV_AT_EPOCH": 267, "BSTAR": 0.00069409, "MEAN_MOTION_DOT": 0.0004313, "MEAN_MOTION_DDOT": 0}, "tle": {"line1": "1 66910U 98067XW  25353.54901825  .00043130  00000+0  69409-3 0  9995", "line2": "2 66910  51.6305 108.5102 0004382 243.3936 116.6605 15.52526300  2677"}}, "geometry": {"type": "Point", "coordinates": [-86.13657101628445, 12.381496859240713]}}]}